[{"OBJECT_NAME":"TRANSPORTER-12 OBJECT BA","OBJECT_ID":"2025-009BA","EPOCH":"2026-03-09T16:49:42.568896","MEAN_MOTION":15.27214003,"ECCENTRICITY":4.03e-5,"INCLINATION":97.3985,"RA_OF_ASC_NODE":151.139,"ARG_OF_PERICENTER":234.6623,"MEAN_ANOMALY":125.4579,"EPHEMERIS_TYPE":0,"CLASSIFICATION_TYPE":"U","NORAD_CAT_ID":62657,"ELEMENT_SET_NO":999,"REV_AT_EPOCH":6373,"BSTAR":0.00042732654,"MEAN_MOTION_DOT":0.0001133,"MEAN_MOTION_DDOT":0},{"OBJECT_NAME":"STARLINK-32802","OBJECT_ID":"2025-014D","EPOCH":"2026-03-09T05:55:15.528000","MEAN_MOTION":15.27580243,"ECCENTRICITY":0.00012119,"INCLINATION":43.0003,"RA_OF_ASC_NODE":156.5437,"ARG_OF_PERICENTER":247.8832,"MEAN_ANOMALY":112.1891,"EPHEMERIS_TYPE":0,"CLASSIFICATION_TYPE":"U","NORAD_CAT_ID":62738,"ELEMENT_SET_NO":999,"REV_AT_EPOCH":6319,"BSTAR":0.0012850512,"MEAN_MOTION_DOT":0.00035269,"MEAN_MOTION_DDOT":0}]
